     3.04           N: GNSS NAV DATA    M: MIXED            RINEX VERSION / TYPE
ssrcrin-15.6.1x                         20250101 041500 UTC PGM / RUN BY / DATE 
    18                                                      LEAP SECONDS        
                                                            END OF HEADER       
S27 2025 01 01 04 29 52 3.217719495296E-07 4.092726157978E-11 2.753680000000E+05
     2.417130808000E+04-3.788125000000E-03-1.500000000000E-07 3.100000000000E+01
     3.451977368000E+04 2.906250000000E-04 2.500000000000E-07 4.096000000000E+03
     3.856364000000E+02-2.970800000000E-02-2.062500000000E-06 6.100000000000E+01
S28 2025 01 01 04 29 52 2.845190465450E-07 5.456968210638E-11 2.753680000000E+05
     5.117134400000E+03-2.773750000000E-03-5.000000000000E-08 6.300000000000E+01
     4.183557424000E+04-2.081250000000E-04 1.250000000000E-07 3.276700000000E+04
    -2.047800000000E+01 1.064000000000E-03 1.250000000000E-07 6.100000000000E+01
R10 2025 01 01 04 15 00-2.651894465089E-04-5.456968210638E-12 2.753700000000E+05
     1.957718017578E+04 1.083297729492E+00-2.793967723846E-09 0.000000000000E+00
     1.263779736328E+04 9.104967117310E-01-9.313225746155E-10-7.000000000000E+00
    -1.029639257812E+04 3.189719200134E+00 9.313225746155E-10 0.000000000000E+00
